[{"OBJECT_NAME":"COSMOS 1629","OBJECT_ID":"1985-016A","EPOCH":"2026-03-07T11:27:38.750976","MEAN_MOTION":1.0027324,"ECCENTRICITY":0.00066216,"INCLINATION":9.3134,"RA_OF_ASC_NODE":315.1482,"ARG_OF_PERICENTER":272.4102,"MEAN_ANOMALY":293.1925,"EPHEMERIS_TYPE":0,"CLASSIFICATION_TYPE":"U","NORAD_CAT_ID":15574,"ELEMENT_SET_NO":999,"REV_AT_EPOCH":14943,"BSTAR":0,"MEAN_MOTION_DOT":6.1e-7,"MEAN_MOTION_DDOT":0},{"OBJECT_NAME":"GSTAR 1","OBJECT_ID":"1985-035A","EPOCH":"2026-03-07T08:09:08.023680","MEAN_MOTION":1.00272583,"ECCENTRICITY":0.0002503,"INCLINATION":14.3603,"RA_OF_ASC_NODE":349.4927,"ARG_OF_PERICENTER":83.6182,"MEAN_ANOMALY":109.1431,"EPHEMERIS_TYPE":0,"CLASSIFICATION_TYPE":"U","NORAD_CAT_ID":15677,"ELEMENT_SET_NO":999,"REV_AT_EPOCH":12418,"BSTAR":0,"MEAN_MOTION_DOT":-1.14e-6,"MEAN_MOTION_DDOT":0},{"OBJECT_NAME":"TELECOM 1B","OBJECT_ID":"1985-035B","EPOCH":"2026-03-07T03:17:44.067840","MEAN_MOTION":1.00372456,"ECCENTRICITY":0.00047328,"INCLINATION":10.3021,"RA_OF_ASC_NODE":321.5671,"ARG_OF_PERICENTER":344.7015,"MEAN_ANOMALY":193.5946,"EPHEMERIS_TYPE":0,"CLASSIFICATION_TYPE":"U","NORAD_CAT_ID":15678,"ELEMENT_SET_NO":999,"REV_AT_EPOCH":13599,"BSTAR":0,"MEAN_MOTION_DOT":-2.73e-6,"MEAN_MOTION_DDOT":0},{"OBJECT_NAME":"ARABSAT-1B","OBJECT_ID":"1985-048C","EPOCH":"2026-03-07T07:50:38.796288","MEAN_MOTION":1.0043457,"ECCENTRICITY":0.00173005,"INCLINATION":12.4868,"RA_OF_ASC_NODE":334.8253,"ARG_OF_PERICENTER":14.4433,"MEAN_ANOMALY":345.9936,"EPHEMERIS_TYPE":0,"CLASSIFICATION_TYPE":"U","NORAD_CAT_ID":15825,"ELEMENT_SET_NO":999,"REV_AT_EPOCH":13440,"BSTAR":0,"MEAN_MOTION_DOT":5.3e-7,"MEAN_MOTION_DDOT":0},{"OBJECT_NAME":"TELSTAR 303","OBJECT_ID":"1985-048D","EPOCH":"2026-03-06T13:44:38.785632","MEAN_MOTION":0.99883491,"ECCENTRICITY":0.00043874,"INCLINATION":14.2507,"RA_OF_ASC_NODE":347.047,"ARG_OF_PERICENTER":283.9788,"MEAN_ANOMALY":285.4192,"EPHEMERIS_TYPE":0,"CLASSIFICATION_TYPE":"U","NORAD_CAT_ID":15826,"ELEMENT_SET_NO":999,"REV_AT_EPOCH":4547,"BSTAR":0,"MEAN_MOTION_DOT":-4.0e-8,"MEAN_MOTION_DDOT":0},{"OBJECT_NAME":"INTELSAT 511","OBJECT_ID":"1985-055A","EPOCH":"2026-03-06T11:58:41.297376","MEAN_MOTION":1.00106033,"ECCENTRICITY":0.00108769,"INCLINATION":13.2847,"RA_OF_ASC_NODE":339.4902,"ARG_OF_PERICENTER":79.2534,"MEAN_ANOMALY":116.3122,"EPHEMERIS_TYPE":0,"CLASSIFICATION_TYPE":"U","NORAD_CAT_ID":15873,"ELEMENT_SET_NO":999,"REV_AT_EPOCH":12348,"BSTAR":0,"MEAN_MOTION_DOT":6.3e-7,"MEAN_MOTION_DDOT":0},{"OBJECT_NAME":"RADUGA 16","OBJECT_ID":"1985-070A","EPOCH":"2026-03-07T10:13:38.593632","MEAN_MOTION":1.00258336,"ECCENTRICITY":0.00029235,"INCLINATION":9.5912,"RA_OF_ASC_NODE":317.4601,"ARG_OF_PERICENTER":320.6484,"MEAN_ANOMALY":229.083,"EPHEMERIS_TYPE":0,"CLASSIFICATION_TYPE":"U","NORAD_CAT_ID":15946,"ELEMENT_SET_NO":999,"REV_AT_EPOCH":12120,"BSTAR":0,"MEAN_MOTION_DOT":8.3e-7,"MEAN_MOTION_DDOT":0},{"OBJECT_NAME":"OPTUS A1 (AUSSAT 1)","OBJECT_ID":"1985-076B","EPOCH":"2026-03-07T03:41:38.902272","MEAN_MOTION":0.99767078,"ECCENTRICITY":0.0004508,"INCLINATION":13.379,"RA_OF_ASC_NODE":339.5798,"ARG_OF_PERICENTER":352.7947,"MEAN_ANOMALY":213.2697,"EPHEMERIS_TYPE":0,"CLASSIFICATION_TYPE":"U","NORAD_CAT_ID":15993,"ELEMENT_SET_NO":999,"REV_AT_EPOCH":11857,"BSTAR":0,"MEAN_MOTION_DOT":-2.85e-6,"MEAN_MOTION_DDOT":0},{"OBJECT_NAME":"ASC 1","OBJECT_ID":"1985-076C","EPOCH":"2026-03-06T08:16:22.863648","MEAN_MOTION":1.00310419,"ECCENTRICITY":0.00022595,"INCLINATION":13.8676,"RA_OF_ASC_NODE":344.1046,"ARG_OF_PERICENTER":22.5739,"MEAN_ANOMALY":165.7212,"EPHEMERIS_TYPE":0,"CLASSIFICATION_TYPE":"U","NORAD_CAT_ID":15994,"ELEMENT_SET_NO":999,"REV_AT_EPOCH":11694,"BSTAR":0,"MEAN_MOTION_DOT":-5.3e-7,"MEAN_MOTION_DDOT":0},{"OBJECT_NAME":"COSMOS 1700","OBJECT_ID":"1985-102A","EPOCH":"2026-03-07T15:08:37.854816","MEAN_MOTION":1.00312894,"ECCENTRICITY":0.00041814,"INCLINATION":9.8814,"RA_OF_ASC_NODE":319.4873,"ARG_OF_PERICENTER":259.6343,"MEAN_ANOMALY":240.319,"EPHEMERIS_TYPE":0,"CLASSIFICATION_TYPE":"U","NORAD_CAT_ID":16199,"ELEMENT_SET_NO":999,"REV_AT_EPOCH":15065,"BSTAR":0,"MEAN_MOTION_DOT":-3.2e-7,"MEAN_MOTION_DDOT":0},{"OBJECT_NAME":"SL-12 R/B(2)","OBJECT_ID":"1985-102D","EPOCH":"2026-03-07T10:13:38.593632","MEAN_MOTION":1.00618769,"ECCENTRICITY":0.00186463,"INCLINATION":9.6198,"RA_OF_ASC_NODE":318.6475,"ARG_OF_PERICENTER":154.8814,"MEAN_ANOMALY":33.3619,"EPHEMERIS_TYPE":0,"CLASSIFICATION_TYPE":"U","NORAD_CAT_ID":16214,"ELEMENT_SET_NO":999,"REV_AT_EPOCH":12382,"BSTAR":0,"MEAN_MOTION_DOT":1.08e-6,"MEAN_MOTION_DDOT":0},{"OBJECT_NAME":"RADUGA 17","OBJECT_ID":"1985-107A","EPOCH":"2026-03-06T17:56:38.521248","MEAN_MOTION":1.0016547,"ECCENTRICITY":0.00125011,"INCLINATION":9.7798,"RA_OF_ASC_NODE":318.9972,"ARG_OF_PERICENTER":239.3672,"MEAN_ANOMALY":3.6577,"EPHEMERIS_TYPE":0,"CLASSIFICATION_TYPE":"U","NORAD_CAT_ID":16250,"ELEMENT_SET_NO":999,"REV_AT_EPOCH":15064,"BSTAR":0,"MEAN_MOTION_DOT":-3.62e-6,"MEAN_MOTION_DDOT":0},{"OBJECT_NAME":"OPTUS A2 (AUSSAT 2)","OBJECT_ID":"1985-109C","EPOCH":"2026-03-07T05:35:38.724576","MEAN_MOTION":0.99945813,"ECCENTRICITY":0.0006338,"INCLINATION":13.4416,"RA_OF_ASC_NODE":340.8659,"ARG_OF_PERICENTER":319.6537,"MEAN_ANOMALY":153.5189,"EPHEMERIS_TYPE":0,"CLASSIFICATION_TYPE":"U","NORAD_CAT_ID":16275,"ELEMENT_SET_NO":999,"REV_AT_EPOCH":4551,"BSTAR":0,"MEAN_MOTION_DOT":9.4e-7,"MEAN_MOTION_DDOT":0},{"OBJECT_NAME":"STTW-1","OBJECT_ID":"1986-010A","EPOCH":"2026-03-07T14:12:23.019840","MEAN_MOTION":1.00242986,"ECCENTRICITY":0.00039541,"INCLINATION":10.7608,"RA_OF_ASC_NODE":324.2049,"ARG_OF_PERICENTER":313.9829,"MEAN_ANOMALY":199.7692,"EPHEMERIS_TYPE":0,"CLASSIFICATION_TYPE":"U","NORAD_CAT_ID":16526,"ELEMENT_SET_NO":999,"REV_AT_EPOCH":15444,"BSTAR":0,"MEAN_MOTION_DOT":-3.06e-6,"MEAN_MOTION_DDOT":0},{"OBJECT_NAME":"GSTAR 2","OBJECT_ID":"1986-026A","EPOCH":"2026-02-28T00:31:13.117440","MEAN_MOTION":0.99801836,"ECCENTRICITY":0.00034476,"INCLINATION":14.2559,"RA_OF_ASC_NODE":346.673,"ARG_OF_PERICENTER":12.6884,"MEAN_ANOMALY":170.3094,"EPHEMERIS_TYPE":0,"CLASSIFICATION_TYPE":"U","NORAD_CAT_ID":16649,"ELEMENT_SET_NO":999,"REV_AT_EPOCH":11555,"BSTAR":0,"MEAN_MOTION_DOT":-9.1e-7,"MEAN_MOTION_DDOT":0},{"OBJECT_NAME":"COSMOS 1738","OBJECT_ID":"1986-027A","EPOCH":"2026-03-06T23:36:38.557440","MEAN_MOTION":1.00260061,"ECCENTRICITY":0.00115317,"INCLINATION":10.4338,"RA_OF_ASC_NODE":318.504,"ARG_OF_PERICENTER":135.5593,"MEAN_ANOMALY":60.3191,"EPHEMERIS_TYPE":0,"CLASSIFICATION_TYPE":"U","NORAD_CAT_ID":16667,"ELEMENT_SET_NO":999,"REV_AT_EPOCH":14632,"BSTAR":0,"MEAN_MOTION_DOT":-5.7e-7,"MEAN_MOTION_DDOT":0},{"OBJECT_NAME":"GORIZONT 12","OBJECT_ID":"1986-044A","EPOCH":"2026-03-06T17:47:27.437856","MEAN_MOTION":1.00343355,"ECCENTRICITY":0.00053598,"INCLINATION":10.2128,"RA_OF_ASC_NODE":321.7825,"ARG_OF_PERICENTER":322.0086,"MEAN_ANOMALY":233.8418,"EPHEMERIS_TYPE":0,"CLASSIFICATION_TYPE":"U","NORAD_CAT_ID":16769,"ELEMENT_SET_NO":999,"REV_AT_EPOCH":14623,"BSTAR":0,"MEAN_MOTION_DOT":-2.25e-6,"MEAN_MOTION_DDOT":0}]
