COSMOS 1629             
1 15574U 85016A   26066.47753184  .00000061  00000+0  00000+0 0  9996
2 15574   9.3134 315.1482 0006621 272.4102 293.1925  1.00273240149432
GSTAR 1                 
1 15677U 85035A   26066.33967620 -.00000114  00000+0  00000+0 0  9998
2 15677  14.3603 349.4927 0002503  83.6182 109.1431  1.00272583124184
TELECOM 1B              
1 15678U 85035B   26066.13731560 -.00000273  00000+0  00000+0 0  9995
2 15678  10.3021 321.5671 0004732 344.7015 193.5946  1.00372456135993
ARABSAT-1B              
1 15825U 85048C   26066.32683792  .00000053  00000+0  00000+0 0  9992
2 15825  12.4868 334.8253 0017300  14.4433 345.9936  1.00434570134405
TELSTAR 303             
1 15826U 85048D   26065.57267113 -.00000004  00000+0  00000+0 0  9991
2 15826  14.2507 347.0470 0004387 283.9788 285.4192  0.99883491 45477
INTELSAT 511            
1 15873U 85055A   26065.49908909  .00000063  00000+0  00000+0 0  9991
2 15873  13.2847 339.4902 0010876  79.2534 116.3122  1.00106033123481
RADUGA 16               
1 15946U 85070A   26066.42614113  .00000083  00000+0  00000+0 0  9996
2 15946   9.5912 317.4601 0002923 320.6484 229.0830  1.00258336121206
OPTUS A1 (AUSSAT 1)     
1 15993U 85076B   26066.15392248 -.00000285  00000+0  00000+0 0  9991
2 15993  13.3790 339.5798 0004508 352.7947 213.2697  0.99767078118575
ASC 1                   
1 15994U 85076C   26065.34470907 -.00000053  00000+0  00000+0 0  9994
2 15994  13.8676 344.1046 0002259  22.5739 165.7212  1.00310419116943
COSMOS 1700             
1 16199U 85102A   26066.63099369 -.00000032  00000+0  00000+0 0  9991
2 16199   9.8814 319.4873 0004181 259.6343 240.3190  1.00312894150653
SL-12 R/B(2)            
1 16214U 85102D   26066.42614113  .00000108  00000+0  00000+0 0  9999
2 16214   9.6198 318.6475 0018646 154.8814  33.3619  1.00618769123828
RADUGA 17               
1 16250U 85107A   26065.74766807 -.00000362  00000+0  00000+0 0  9999
2 16250   9.7798 318.9972 0012501 239.3672   3.6577  1.00165470150644
OPTUS A2 (AUSSAT 2)     
1 16275U 85109C   26066.23308709  .00000094  00000+0  00000+0 0  9997
2 16275  13.4416 340.8659 0006338 319.6537 153.5189  0.99945813 45516
STTW-1                  
1 16526U 86010A   26066.59193310 -.00000306  00000+0  00000+0 0  9994
2 16526  10.7608 324.2049 0003954 313.9829 199.7692  1.00242986154447
GSTAR 2                 
1 16649U 86026A   26059.02167960 -.00000091  00000+0  00000+0 0  9990
2 16649  14.2559 346.6730 0003447  12.6884 170.3094  0.99801836115555
COSMOS 1738             
1 16667U 86027A   26065.98377960 -.00000057  00000+0  00000+0 0  9998
2 16667  10.4338 318.5040 0011531 135.5593  60.3191  1.00260061146322
GORIZONT 12             
1 16769U 86044A   26065.74128979 -.00000225  00000+0  00000+0 0  9995
2 16769  10.2128 321.7825 0005359 322.0086 233.8418  1.00343355146235
